STARLINK-36618          
1 67847U 26033AC  26062.50001156 -.00891282  25910-3 -19177-2 0  9999
2 67847  42.9864 307.5994 0002336 263.9566  67.3905 15.97547441  3667
STARLINK-36818          
1 67879U 26035A   26062.50001156 -.00907126  27491-3 -17509-2 0  9994
2 67879  97.2790 354.3428 0001263 108.2837 213.0083 16.00433618  2767
STARLINK-36821          
1 67880U 26035B   26062.50001156 -.00907767  27585-3 -17338-2 0  9991
2 67880  97.2785 354.3455 0001136 106.2804 220.7627 16.00618249  2768
STARLINK-36808          
1 67881U 26035C   26062.50001156 -.00905302  27410-3 -17404-2 0  9996
2 67881  97.2786 354.3438 0001364 118.7690 204.6806 16.00503043  2760
STARLINK-36817          
1 67882U 26035D   26062.50001156 -.00910602  27815-3 -17175-2 0  9990
2 67882  97.2779 354.3481 0001104 100.7161 233.3565 16.00839170  2761
STARLINK-36856          
1 67883U 26035E   26062.50001156 -.00911828  27851-3 -17300-2 0  9992
2 67883  97.2783 354.3468 0001191 110.3235 220.4822 16.00735211  2761
STARLINK-36842          
1 67884U 26035F   26062.50001156 -.00919918  28380-3 -17246-2 0  9998
2 67884  97.2780 354.3494 0001072 106.9233 230.1819 16.00945914  2762
STARLINK-36826          
1 67885U 26035G   26062.50001156 -.00904073  27502-3 -16877-2 0  9999
2 67885  97.2779 354.3506 0001069  94.7729 244.7325 16.01018025  2763
STARLINK-36390          
1 67886U 26035H   26062.50001156 -.00908581  27796-3 -16846-2 0  9999
2 67886  97.2777 354.3521 0001151 104.1773 239.0553 16.01138097  2814
STARLINK-36368          
1 67887U 26035J   26062.50001156 -.00920916  28538-3 -16962-2 0  9990
2 67887  97.2774 354.3534 0001271 117.0223 229.7449 16.01254042  2765
STARLINK-36801          
1 67888U 26035K   26062.50001156 -.00968920  31408-3 -17712-2 0  9992
2 67888  97.2773 354.3549 0001129  77.9704 272.1757 16.01393071  2761
STARLINK-36372          
1 67889U 26035L   26062.50001156 -.01033520  35490-3 -18654-2 0  9994
2 67889  97.2768 354.3576 0001138  80.5202 276.1261 16.01623184  2764
STARLINK-36363          
1 67890U 26035M   26062.50001156 -.01003857  33588-3 -18219-2 0  9999
2 67890  97.2772 354.3568 0001221 107.7052 246.2989 16.01522729  2768
STARLINK-36816          
1 67891U 26035N   26062.50001156 -.01086416  39572-3 -18057-2 0  9991
2 67891  97.2749 354.3770 0001061  96.3622 309.4489 16.03046695  2656
STARLINK-36813          
1 67892U 26035P   26062.50001156 -.01086534  39278-3 -18765-2 0  9992
2 67892  97.2750 354.3678 0001268 114.7300 269.1989 16.02390865  2762
STARLINK-36803          
1 67893U 26035Q   26062.50001156 -.01065233  37586-3 -19094-2 0  9992
2 67893  97.2768 354.3593 0001039  83.0724 277.7105 16.01747406  2763
